MEAN_MOTION;ECCENTRICITY;INCLINATION;RA_OF_ASC_NODE;ARG_OF_PERICENTER;MEAN_ANOMALY;BSTAR;MEAN_MOTION_DOT;MEAN_MOTION_DDOT;TYPE
14.3276718;0.0002133;45.0064;233.3974;141.7968;218.303;5.4492E-5;9.0E-8;0;Orbcomm
14.32767483;0.0002208;45.0065;228.4809;148.998;211.0996;4.9396E-5;-5.0E-8;0;Orbcomm
14.32767483;0.0002208;45.0065;228.4809;148.998;211.0996;4.9396E-5;-5.0E-8;0;Orbcomm
14.32767867;0.0002283;45.0065;223.8921;155.4994;204.5961;4.8427E-5;-7.0E-8;0;Orbcomm
14.32767994;0.0002309;45.0066;222.2532;157.8633;202.2314;4.7276E-5;-1.1E-7;0;Orbcomm
14.32768122;0.0002336;45.0066;220.9421;159.5588;200.5352;4.8399E-5;-8.0E-8;0;Orbcomm
14.32768264;0.0002365;45.0066;219.3034;161.6198;198.4734;4.9317E-5;-5.0E-8;0;Orbcomm
14.32768485;0.0002427;45.0066;216.0256;165.8597;194.2318;4.8837E-5;-6.0E-8;0;Orbcomm
14.32768561;0.0002443;45.0066;215.0424;167.0112;193.0798;5.0308E-5;-2.0E-8;0;Orbcomm
14.32768845;0.0002532;45.0066;210.1259;173.235;186.8531;5.228E-5;3.0E-8;0;Orbcomm
14.32768616;0.0002618;45.0066;206.8481;178.6906;181.3948;4.7629E-5;-1.0E-7;0;Orbcomm
14.32768716;0.00027;45.0067;202.2594;184.2215;175.8609;3.9521E-5;-3.2E-7;0;Orbcomm
14.32768805;0.0002688;45.0066;201.9316;183.6162;176.4665;4.8551E-5;-7.0E-8;0;Orbcomm
14.32769092;0.0002791;45.0066;196.0319;189.6828;170.3964;5.2761E-5;4.0E-8;0;Orbcomm
14.32769102;0.0002877;45.0066;192.4263;193.1712;166.906;4.0785E-5;-2.8E-7;0;Orbcomm
14.32769128;0.000289;45.0067;191.1154;194.6883;165.388;3.7844E-5;-3.7E-7;0;Orbcomm
14.32769311;0.0002981;45.0067;186.5267;199.3638;160.7096;3.4236E-5;-4.6E-7;0;Orbcomm
14.32769483;0.0003055;45.0068;182.9213;203.0139;157.0571;3.1746E-5;-5.3E-7;0;Orbcomm
14.32769602;0.0003095;45.0069;180.2992;205.851;154.2182;3.0097E-5;-5.8E-7;0;Orbcomm
14.32769775;0.0003127;45.0069;178.3327;207.8108;152.2571;3.4504E-5;-4.6E-7;0;Orbcomm
14.32769959;0.0003185;45.0068;175.0551;211.2294;148.8363;3.6517E-5;-4.0E-7;0;Orbcomm
14.32770122;0.0003208;45.0068;173.4163;212.5943;147.4706;4.194E-5;-2.5E-7;0;Orbcomm
14.32770421;0.000328;45.0068;169.1554;216.8173;143.2448;4.8495E-5;-7.0E-8;0;Orbcomm
14.32770853;0.0003348;45.0066;164.239;221.2991;138.7603;6.0539E-5;2.6E-7;0;Orbcomm
14.32770897;0.0003355;45.0066;163.5835;221.959;138.0999;6.0987E-5;2.7E-7;0;Orbcomm
14.32771406;0.0003408;45.0065;158.9948;226.5029;133.5534;7.4995E-5;6.6E-7;0;Orbcomm
14.32771823;0.0003466;45.0065;155.0616;230.1075;129.9467;8.1472E-5;8.3E-7;0;Orbcomm
14.32772133;0.0003508;45.0064;151.7838;233.1156;126.9369;8.1901E-5;8.5E-7;0;Orbcomm
14.3277234;0.0003526;45.0064;149.8173;234.93;125.1215;8.233E-5;8.6E-7;0;Orbcomm
14.32773031;0.0003598;45.0064;143.5897;240.6147;119.434;8.2906E-5;8.7E-7;0;Orbcomm
14.32773226;0.0003613;45.0064;142.2785;241.6828;118.3654;8.5847E-5;9.5E-7;0;Orbcomm
14.3277363;0.000364;45.0065;139.0009;244.655;115.3919;8.8205E-5;1.02E-6;0;Orbcomm
14.32773977;0.000366;45.0064;136.3788;246.9093;113.1367;9.201E-5;1.12E-6;0;Orbcomm
14.32774617;0.0003697;45.0064;131.4623;251.4022;108.6423;9.7232E-5;1.27E-6;0;Orbcomm
14.32774617;0.0003697;45.0064;131.4623;251.4022;108.6423;9.7232E-5;1.27E-6;0;Orbcomm
14.32774876;0.000372;45.0064;128.8401;253.7938;106.2499;9.6307E-5;1.24E-6;0;Orbcomm
14.32775472;0.0003747;45.0064;123.9234;257.7858;102.2568;9.632E-5;1.24E-6;0;Orbcomm
14.32775722;0.0003749;45.0064;121.9569;259.5956;100.4468;9.6234E-5;1.24E-6;0;Orbcomm
14.32776028;0.0003766;45.0064;119.0068;262.0961;97.9457;9.2403E-5;1.14E-6;0;Orbcomm
14.32776296;0.0003759;45.0064;117.3681;263.778;96.2638;9.4948E-5;1.21E-6;0;Orbcomm
14.32776906;0.0003763;45.0064;112.7792;267.888;92.1536;9.2907E-5;1.15E-6;0;Orbcomm
14.3277756;0.0003763;45.0064;108.1903;271.94;88.1016;9.3058E-5;1.15E-6;0;Orbcomm
14.32777898;0.0003766;45.0064;105.2401;274.5378;85.5038;8.9566E-5;1.06E-6;0;Orbcomm
14.32778123;0.0003754;45.0065;103.6013;276.0594;83.9825;8.9976E-5;1.07E-6;0;Orbcomm
14.32778762;0.0003744;45.0067;98.6846;280.2061;79.8363;9.0926E-5;1.09E-6;0;Orbcomm
14.32779327;0.0003727;45.0068;94.0958;284.1436;75.8996;9.3019E-5;1.15E-6;0;Orbcomm
14.3277969;0.0003713;45.007;90.818;286.8476;73.1963;9.3264E-5;1.16E-6;0;Orbcomm
14.32779859;0.0003702;45.007;89.5069;288.0899;71.9544;9.4697E-5;1.2E-6;0;Orbcomm
14.32780323;0.0003671;45.0072;85.2459;291.8611;68.1845;9.4795E-5;1.2E-6;0;Orbcomm
14.32780619;0.0003652;45.0072;82.2959;294.3457;65.7007;9.2909E-5;1.15E-6;0;Orbcomm
14.32781142;0.0003605;45.0073;77.7073;298.4972;61.5511;9.0587E-5;1.09E-6;0;Orbcomm
14.32781417;0.0003574;45.0074;75.413;300.6114;59.438;8.7887E-5;1.01E-6;0;Orbcomm
14.32781757;0.0003531;45.0075;72.1353;303.538;56.5129;8.3252E-5;8.8E-7;0;Orbcomm
14.32782115;0.0003496;45.0076;68.5299;306.734;53.3185;7.7942E-5;7.4E-7;0;Orbcomm
14.32782232;0.0003475;45.0077;67.2189;307.8864;52.1667;7.5777E-5;6.8E-7;0;Orbcomm
14.327826;0.0003434;45.0078;63.6134;311.0595;48.9955;7.3657E-5;6.2E-7;0;Orbcomm
14.3278265;0.0003407;45.0079;62.3024;312.3681;47.6876;7.098E-5;5.5E-7;0;Orbcomm
14.32782884;0.0003384;45.008;59.3525;314.9574;45.0997;6.9134E-5;4.9E-7;0;Orbcomm
14.32783015;0.0003347;45.0081;57.0582;317.1921;42.8664;6.6379E-5;4.2E-7;0;Orbcomm
14.32783317;0.0003275;45.0082;52.4695;321.3635;38.6977;6.6705E-5;4.3E-7;0;Orbcomm
14.32783544;0.0003207;45.0084;48.5364;325.0819;34.9816;6.7663E-5;4.5E-7;0;Orbcomm
14.32783592;0.0003198;45.0084;47.8809;325.7075;34.3565;6.8353E-5;4.7E-7;0;Orbcomm
14.32783727;0.0003146;45.0085;44.931;328.7419;31.324;6.6266E-5;4.2E-7;0;Orbcomm
14.32783771;0.0003114;45.0085;43.2923;330.4567;29.6103;6.4459E-5;3.7E-7;0;Orbcomm
14.32783969;0.000303;45.0086;38.7037;335.1452;24.9248;5.8399E-5;2.0E-7;0;Orbcomm
14.32784169;0.0002952;45.0087;34.4429;339.498;20.5747;5.1973E-5;2.0E-8;0;Orbcomm
14.32784375;0.0002883;45.0088;30.8375;343.2518;16.8232;4.6925E-5;-1.2E-7;0;Orbcomm
14.32784447;0.0002856;45.0088;29.1988;345.0627;15.0135;4.4312E-5;-1.9E-7;0;Orbcomm
14.3278464;0.0002801;45.0089;26.2489;348.0895;11.9885;4.2914E-5;-2.3E-7;0;Orbcomm
14.32785023;0.0002712;45.0089;21.6603;352.8445;7.2362;4.7059E-5;-1.1E-7;0;Orbcomm
14.32785131;0.0002701;45.0088;20.6771;353.8286;6.2526;5.0059E-5;-3.0E-8;0;Orbcomm
14.32785435;0.0002627;45.0088;17.0717;357.7233;2.3601;5.4801E-5;1.0E-7;0;Orbcomm
14.32785603;0.0002607;45.0088;15.7607;359.3017;0.7825;6.0353E-5;2.5E-7;0;Orbcomm
14.32785942;0.0002534;45.0087;12.483;2.9705;357.1155;6.7538E-5;4.5E-7;0;Orbcomm
14.32786067;0.0002512;45.0087;11.172;4.5093;355.5775;7.0908E-5;5.4E-7;0;Orbcomm
14.32786401;0.0002437;45.0086;7.8943;8.6694;351.4194;7.6683E-5;7.0E-7;0;Orbcomm
14.32786696;0.000237;45.0086;4.289;13.0623;347.0284;7.9132E-5;7.7E-7;0;Orbcomm
14.32786781;0.0002345;45.0086;3.3056;14.5485;345.5429;7.8653E-5;7.6E-7;0;Orbcomm
14.32786922;0.0002321;45.0086;1.667;16.7412;343.3511;7.9237E-5;7.7E-7;0;Orbcomm
14.327871;0.0002283;45.0086;359.7004;19.1619;340.9312;7.9285E-5;7.7E-7;0;Orbcomm
14.32787227;0.0002249;45.0085;358.0615;21.5211;338.5729;7.732E-5;7.2E-7;0;Orbcomm
14.32787453;0.0002205;45.0085;355.4395;24.967;335.1283;7.4598E-5;6.4E-7;0;Orbcomm
14.32787635;0.0002159;45.0085;353.4728;27.8811;332.2151;7.3003E-5;6.0E-7;0;Orbcomm
14.32788071;0.0002077;45.0084;348.8842;34.5335;325.5646;6.9896E-5;5.2E-7;0;Orbcomm
14.32788105;0.0002075;45.0084;348.5565;35.0251;325.0731;7.0092E-5;5.2E-7;0;Orbcomm
14.32788572;0.0002;45.0084;343.9678;41.904;318.1959;7.0566E-5;5.3E-7;0;Orbcomm
14.32788648;0.0002;45.0083;343.3124;42.6444;317.4557;7.1607E-5;5.6E-7;0;Orbcomm
14.32789409;0.0001906;45.0082;336.1015;53.7859;306.3163;8.0772E-5;8.1E-7;0;Orbcomm
14.32789856;0.0001847;45.008;330.2017;64.0483;296.0553;8.0725E-5;8.1E-7;0;Orbcomm
14.32789872;0.0001845;45.008;329.8739;64.5749;295.5288;8.0545E-5;8.1E-7;0;Orbcomm
14.32790096;0.0001818;45.0079;326.9239;69.5343;290.5699;8.0761E-5;8.1E-7;0;Orbcomm
14.32790265;0.0001813;45.0078;325.285;72.4094;287.695;8.3837E-5;9.0E-7;0;Orbcomm
14.32790318;0.0001811;45.0078;324.6295;73.5529;286.5516;8.3722E-5;9.0E-7;0;Orbcomm
14.32790523;0.0001793;45.0078;322.3351;77.5447;282.56;8.418E-5;9.1E-7;0;Orbcomm
14.32790576;0.0001792;45.0077;320.3684;81.0251;279.0798;7.6724E-5;7.0E-7;0;Orbcomm
14.32790871;0.0001784;45.0077;316.1073;88.7873;271.3177;6.9575E-5;5.1E-7;0;Orbcomm
14.32790908;0.0001785;45.0077;315.7796;89.247;270.858;7.0034E-5;5.2E-7;0;Orbcomm
14.32791233;0.0001792;45.0077;311.1907;97.0831;263.0219;6.3589E-5;3.4E-7;0;Orbcomm
14.3279129;0.0001794;45.0077;310.5351;98.1804;261.9246;6.2735E-5;3.2E-7;0;Orbcomm
14.32791536;0.0001808;45.0077;306.2741;105.4911;254.6135;5.5215E-5;1.1E-7;0;Orbcomm
14.32791775;0.0001824;45.0077;302.6685;111.5915;248.5126;5.2535E-5;4.0E-8;0;Orbcomm
14.32791818;0.0001833;45.0076;301.6853;113.5075;246.5964;5.1133E-5;0;0;Orbcomm
14.32792042;0.0001865;45.0076;297.4243;120.8015;239.3015;4.9116E-5;-6.0E-8;0;Orbcomm
14.32792071;0.0001869;45.0076;297.0965;121.3308;238.7721;4.9539E-5;-4.0E-8;0;Orbcomm
14.32792238;0.0001916;45.0075;292.5078;128.8247;231.277;4.7123E-5;-1.1E-7;0;Orbcomm
14.32792252;0.0001919;45.0075;292.18;129.3643;230.7373;4.6976E-5;-1.1E-7;0;Orbcomm
14.32792313;0.0001975;45.0074;287.5913;136.1318;223.9686;4.2354E-5;-2.4E-7;0;Orbcomm
14.32792313;0.0001975;45.0074;287.5913;136.1318;223.9686;4.2354E-5;-2.4E-7;0;Orbcomm
14.32792391;0.0002017;45.0074;284.3135;140.7607;219.3386;4.0059E-5;-3.0E-7;0;Orbcomm
14.32792389;0.0002039;45.0074;283.0024;142.9329;217.1659;3.7396E-5;-3.8E-7;0;Orbcomm
14.32792465;0.0002074;45.0073;280.3802;146.7805;213.3172;3.5664E-5;-4.3E-7;0;Orbcomm
14.32792483;0.0002107;45.0073;278.4137;149.3778;210.7192;3.1642E-5;-5.4E-7;0;Orbcomm
14.32792627;0.0002164;45.0073;275.1359;154.1984;205.897;2.9962E-5;-5.8E-7;0;Orbcomm
14.32792705;0.0002175;45.0073;274.1527;155.1445;204.9507;3.1845E-5;-5.3E-7;0;Orbcomm
14.32792743;0.0002184;45.0073;273.4971;155.9116;204.1833;3.164E-5;-5.4E-7;0;Orbcomm
14.32793071;0.000226;45.0074;269.2362;161.8991;198.1936;3.5855E-5;-4.2E-7;0;Orbcomm
14.32793095;0.0002267;45.0073;268.9084;162.3138;197.7787;3.606E-5;-4.1E-7;0;Orbcomm
14.32793519;0.0002351;45.0073;264.3196;168.2738;191.8163;4.5021E-5;-1.7E-7;0;Orbcomm
14.32793923;0.0002436;45.0073;259.7309;173.9464;186.1412;5.2912E-5;5.0E-8;0;Orbcomm
